ORBCOMM FM115           
1 41186U 15081H   25115.51337691  .00001667  00000+0  36072-3 0  9994
2 41186  46.9990 290.0571 0001038 207.5076 152.5756 14.62395525500066
ORBCOMM FM108           
1 41187U 15081J   25114.99732993  .00002108  00000+0  49036-3 0  9995
2 41187  47.0058 358.1460 0002233  63.9432 296.1683 14.58043542499037
ORBCOMM FM117           
1 41188U 15081K   25115.37473219  .00001843  00000+0  43342-3 0  9991
2 41188  47.0018 355.1441 0002633  75.4762 284.6416 14.58051575499130
ORBCOMM FM116           
1 41189U 15081L   25115.22680400  .00001190  00000+0  29281-3 0  9999
2 41189  47.0015  85.6878 0003191 276.9096  83.1427 14.58055660497923
